{
  "type": "FeatureCollection",
  "features": [
    {
      "type": "Feature",
      "properties": {
        "norad_id": 59479,
        "name": "DUMMY SAT 3",
        "group": "active",
        "lat": NaN,
        "lon": NaN,
        "alt_km": NaN,
        "timestamp": "2025-12-01T03:08:33.384919+00:00",
        "meta": {
          "OBJECT_NAME": "DUMMY SAT 3",
          "OBJECT_ID": "2024-069A",
          "EPOCH": "2025-11-30T15:56:22.483968",
          "MEAN_MOTION": 0.98608488,
          "ECCENTRICITY": 0.0051601,
          "INCLINATION": 1.6055,
          "RA_OF_ASC_NODE": 83.6937,
          "ARG_OF_PERICENTER": 129.097,
          "MEAN_ANOMALY": 230.8342,
          "EPHEMERIS_TYPE": 0,
          "CLASSIFICATION_TYPE": "U",
          "NORAD_CAT_ID": 59479,
          "ELEMENT_SET_NO": 999,
          "REV_AT_EPOCH": 585,
          "BSTAR": 0,
          "MEAN_MOTION_DOT": -1.89e-06,
          "MEAN_MOTION_DDOT": 0
        }
      },
      "geometry": {
        "type": "Point",
        "coordinates": [
          NaN,
          NaN
        ]
      }
    },
    {
      "type": "Feature",
      "properties": {
        "norad_id": 59481,
        "name": "WSF-M",
        "group": "active",
        "lat": NaN,
        "lon": NaN,
        "alt_km": NaN,
        "timestamp": "2025-12-01T03:08:33.385386+00:00",
        "meta": {
          "OBJECT_NAME": "WSF-M",
          "OBJECT_ID": "2024-070A",
          "EPOCH": "2025-11-30T18:16:39.444096",
          "MEAN_MOTION": 14.20690152,
          "ECCENTRICITY": 0.0004968,
          "INCLINATION": 98.7191,
          "RA_OF_ASC_NODE": 340.3931,
          "ARG_OF_PERICENTER": 162.8793,
          "MEAN_ANOMALY": 197.2552,
          "EPHEMERIS_TYPE": 0,
          "CLASSIFICATION_TYPE": "U",
          "NORAD_CAT_ID": 59481,
          "ELEMENT_SET_NO": 999,
          "REV_AT_EPOCH": 8492,
          "BSTAR": 5.7973e-05,
          "MEAN_MOTION_DOT": 8.1e-07,
          "MEAN_MOTION_DDOT": 0
        }
      },
      "geometry": {
        "type": "Point",
        "coordinates": [
          NaN,
          NaN
        ]
      }
    },
    {
      "type": "Feature",
      "properties": {
        "norad_id": 59510,
        "name": "SUPERVIEW NEO-3 01",
        "group": "active",
        "lat": NaN,
        "lon": NaN,
        "alt_km": NaN,
        "timestamp": "2025-12-01T03:08:33.385394+00:00",
        "meta": {
          "OBJECT_NAME": "SUPERVIEW NEO-3 01",
          "OBJECT_ID": "2024-072A",
          "EPOCH": "2025-11-30T21:21:18.781344",
          "MEAN_MOTION": 15.23425576,
          "ECCENTRICITY": 0.0002523,
          "INCLINATION": 97.4342,
          "RA_OF_ASC_NODE": 52.1488,
          "ARG_OF_PERICENTER": 96.5056,
          "MEAN_ANOMALY": 263.6468,
          "EPHEMERIS_TYPE": 0,
          "CLASSIFICATION_TYPE": "U",
          "NORAD_CAT_ID": 59510,
          "ELEMENT_SET_NO": 999,
          "REV_AT_EPOCH": 9051,
          "BSTAR": 0.00059377,
          "MEAN_MOTION_DOT": 0.00014084,
          "MEAN_MOTION_DDOT": 0
        }
      },
      "geometry": {
        "type": "Point",
        "coordinates": [
          NaN,
          NaN
        ]
      }
    },
    {
      "type": "Feature",
      "properties": {
        "norad_id": 59557,
        "name": "YAOGAN-42 02",
        "group": "active",
        "lat": NaN,
        "lon": NaN,
        "alt_km": NaN,
        "timestamp": "2025-12-01T03:08:33.385404+00:00",
        "meta": {
          "OBJECT_NAME": "YAOGAN-42 02",
          "OBJECT_ID": "2024-075A",
          "EPOCH": "2025-11-28T10:54:13.432032",
          "MEAN_MOTION": 15.22738144,
          "ECCENTRICITY": 0.00064363,
          "INCLINATION": 34.9996,
          "RA_OF_ASC_NODE": 91.9628,
          "ARG_OF_PERICENTER": 150.0545,
          "MEAN_ANOMALY": 210.0539,
          "EPHEMERIS_TYPE": 0,
          "CLASSIFICATION_TYPE": "U",
          "NORAD_CAT_ID": 59557,
          "ELEMENT_SET_NO": 999,
          "REV_AT_EPOCH": 8946,
          "BSTAR": 0.00060205307,
          "MEAN_MOTION_DOT": 0.00014389,
          "MEAN_MOTION_DDOT": 0
        }
      },
      "geometry": {
        "type": "Point",
        "coordinates": [
          NaN,
          NaN
        ]
      }
    },
    {
      "type": "Feature",
      "properties": {
        "norad_id": 59587,
        "name": "NEONSAT-1",
        "group": "active",
        "lat": NaN,
        "lon": NaN,
        "alt_km": NaN,
        "timestamp": "2025-12-01T03:08:33.385413+00:00",
        "meta": {
          "OBJECT_NAME": "NEONSAT-1",
          "OBJECT_ID": "2024-077A",
          "EPOCH": "2025-11-30T19:27:05.222304",
          "MEAN_MOTION": 15.32914391,
          "ECCENTRICITY": 0.0011068,
          "INCLINATION": 97.3675,
          "RA_OF_ASC_NODE": 54.0689,
          "ARG_OF_PERICENTER": 29.4051,
          "MEAN_ANOMALY": 330.7812,
          "EPHEMERIS_TYPE": 0,
          "CLASSIFICATION_TYPE": "U",
          "NORAD_CAT_ID": 59587,
          "ELEMENT_SET_NO": 999,
          "REV_AT_EPOCH": 8928,
          "BSTAR": 0.00037903,
          "MEAN_MOTION_DOT": 0.00012,
          "MEAN_MOTION_DDOT": 0
        }
      },
      "geometry": {
        "type": "Point",
        "coordinates": [
          NaN,
          NaN
        ]
      }
    },
    {
      "type": "Feature",
      "properties": {
        "norad_id": 59588,
        "name": "ACS3",
        "group": "active",
        "lat": NaN,
        "lon": NaN,
        "alt_km": NaN,
        "timestamp": "2025-12-01T03:08:33.385423+00:00",
        "meta": {
          "OBJECT_NAME": "ACS3",
          "OBJECT_ID": "2024-077B",
          "EPOCH": "2025-11-30T20:01:22.104768",
          "MEAN_MOTION": 13.84599297,
          "ECCENTRICITY": 0.007593,
          "INCLINATION": 97.2792,
          "RA_OF_ASC_NODE": 293.0959,
          "ARG_OF_PERICENTER": 1.8449,
          "MEAN_ANOMALY": 358.2978,
          "EPHEMERIS_TYPE": 0,
          "CLASSIFICATION_TYPE": "U",
          "NORAD_CAT_ID": 59588,
          "ELEMENT_SET_NO": 999,
          "REV_AT_EPOCH": 8049,
          "BSTAR": 0.032724,
          "MEAN_MOTION_DOT": 0.00037723,
          "MEAN_MOTION_DDOT": 0
        }
      },
      "geometry": {
        "type": "Point",
        "coordinates": [
          NaN,
          NaN
        ]
      }
    },
    {
      "type": "Feature",
      "properties": {
        "norad_id": 59678,
        "name": "2024-085B",
        "group": "active",
        "lat": NaN,
        "lon": NaN,
        "alt_km": NaN,
        "timestamp": "2025-12-01T03:08:33.385435+00:00",
        "meta": {
          "OBJECT_NAME": "2024-085B",
          "OBJECT_ID": "2024-085B",
          "EPOCH": "2025-11-30T21:06:14.544000",
          "MEAN_MOTION": 15.60034312,
          "ECCENTRICITY": 0.0005044,
          "INCLINATION": 97.3538,
          "RA_OF_ASC_NODE": 56.7817,
          "ARG_OF_PERICENTER": 10.1798,
          "MEAN_ANOMALY": 349.956,
          "EPHEMERIS_TYPE": 0,
          "CLASSIFICATION_TYPE": "U",
          "NORAD_CAT_ID": 59678,
          "ELEMENT_SET_NO": 999,
          "REV_AT_EPOCH": 8787,
          "BSTAR": 0.0009982,
          "MEAN_MOTION_DOT": 0.00081335,
          "MEAN_MOTION_DDOT": 0
        }
      },
      "geometry": {
        "type": "Point",
        "coordinates": [
          NaN,
          NaN
        ]
      }
    },
    {
      "type": "Feature",
      "properties": {
        "norad_id": 59679,
        "name": "2024-085C",
        "group": "active",
        "lat": NaN,
        "lon": NaN,
        "alt_km": NaN,
        "timestamp": "2025-12-01T03:08:33.385440+00:00",
        "meta": {
          "OBJECT_NAME": "2024-085C",
          "OBJECT_ID": "2024-085C",
          "EPOCH": "2025-11-30T20:18:23.445216",
          "MEAN_MOTION": 15.29464936,
          "ECCENTRICITY": 0.002996,
          "INCLINATION": 97.3524,
          "RA_OF_ASC_NODE": 47.6187,
          "ARG_OF_PERICENTER": 29.8077,
          "MEAN_ANOMALY": 330.4862,
          "EPHEMERIS_TYPE": 0,
          "CLASSIFICATION_TYPE": "U",
          "NORAD_CAT_ID": 59679,
          "ELEMENT_SET_NO": 999,
          "REV_AT_EPOCH": 8728,
          "BSTAR": 0.0003582,
          "MEAN_MOTION_DOT": 0.00010298,
          "MEAN_MOTION_DDOT": 0
        }
      },
      "geometry": {
        "type": "Point",
        "coordinates": [
          NaN,
          NaN
        ]
      }
    }
  ]
}