DUMMY SAT 3             
1 59479U 24069A   25334.66414912 -.00000189  00000+0  00000+0 0  9992
2 59479   1.6055  83.6937 0051601 129.0970 230.8342  0.98608488  5851
WSF-M                   
1 59481U 24070A   25334.76156764  .00000081  00000+0  57973-4 0  9992
2 59481  98.7191 340.3931 0004968 162.8793 197.2552 14.20690152 84924
SUPERVIEW NEO-3 01      
1 59510U 24072A   25334.88980071  .00014084  00000+0  59377-3 0  9993
2 59510  97.4342  52.1488 0002523  96.5056 263.6468 15.23425576 90512
YAOGAN-42 02            
1 59557U 24075A   25332.45432213  .00014389  00000+0  60205-3 0  9998
2 59557  34.9996  91.9628 0006436 150.0545 210.0539 15.22738144 89461
NEONSAT-1               
1 59587U 24077A   25334.81047711  .00012000  00000+0  37903-3 0  9997
2 59587  97.3675  54.0689 0011068  29.4051 330.7812 15.32914391 89281
ACS3                    
1 59588U 24077B   25334.83428362  .00037723  00000+0  32724-1 0  9998
2 59588  97.2792 293.0959 0075930   1.8449 358.2978 13.84599297 80490
2024-085B               
1 59678U 24085B   25334.87933500  .00081335  00000+0  99820-3 0  9996
2 59678  97.3538  56.7817 0005044  10.1798 349.9560 15.60034312 87876
2024-085C               
1 59679U 24085C   25334.84610469  .00010298  00000+0  35820-3 0  9990
2 59679  97.3524  47.6187 0029960  29.8077 330.4862 15.29464936 87280
